[{"OBJECT_NAME":"YUNHAI-2 01F","OBJECT_ID":"2018-112G","EPOCH":"2026-03-09T22:32:39.167808","MEAN_MOTION":14.28981897,"ECCENTRICITY":0.00070201,"INCLINATION":50.0111,"RA_OF_ASC_NODE":288.9308,"ARG_OF_PERICENTER":341.2274,"MEAN_ANOMALY":18.8381,"EPHEMERIS_TYPE":0,"CLASSIFICATION_TYPE":"U","NORAD_CAT_ID":43915,"ELEMENT_SET_NO":999,"REV_AT_EPOCH":37411,"BSTAR":2.0666219e-5,"MEAN_MOTION_DOT":-1.09e-6,"MEAN_MOTION_DDOT":0},{"OBJECT_NAME":"THORAD AGENA D DEB","OBJECT_ID":"1970-025LL","EPOCH":"2026-03-09T14:22:15.390336","MEAN_MOTION":14.35861398,"ECCENTRICITY":0.0022468,"INCLINATION":99.2713,"RA_OF_ASC_NODE":106.5065,"ARG_OF_PERICENTER":3.7885,"MEAN_ANOMALY":356.3464,"EPHEMERIS_TYPE":0,"CLASSIFICATION_TYPE":"U","NORAD_CAT_ID":5507,"ELEMENT_SET_NO":999,"REV_AT_EPOCH":83749,"BSTAR":0.0017012,"MEAN_MOTION_DOT":4.896e-5,"MEAN_MOTION_DDOT":0}]
